IRIDIUM 36              
1 24967U 97056C   24353.22792761  .00000842  00000+0  27604-3 0  9993
2 24967  86.3971 248.9686 0001920  83.8156 276.3260 14.37297605426226
IRIDIUM 39              
1 25042U 97069D   24353.26841277  .00001539  00000+0  40221-3 0  9997
2 25042  86.3905 288.7057 0017440 183.7038 176.4040 14.48728875422766
IRIDIUM 38              
1 25043U 97069E   24353.24453430  .00001098  00000+0  35834-3 0  9990
2 25043  86.3950 309.3045 0002307  37.6484 322.4875 14.37786680419954
IRIDIUM 42              
1 25077U 97077A   24353.16933619  .00001025  00000+0  34587-3 0  9993
2 25077  86.3955 315.2840 0002312  68.5562 291.5882 14.36047082415215
IRIDIUM 44              
1 25078U 97077B   24353.33317630  .00001032  00000+0  32238-3 0  9991
2 25078  86.3949 297.6121 0000439  93.1285 266.9965 14.39916419417670
IRIDIUM 45              
1 25104U 97082A   24353.43651407  .00022928  00000+0  10329-2 0  9994
2 25104  86.3634 135.0559 0135897 284.9054  73.7169 15.12929889424622
IRIDIUM 24              
1 25105U 97082B   24352.98211127  .00001149  00000+0  34618-3 0  9995
2 25105  86.3925 157.1140 0010190 325.3575  34.6960 14.41738694417106
IRIDIUM 51              
1 25262U 98018A   24353.39545246  .00044076  00000+0  14883-2 0  9994
2 25262  86.3911 144.2715 0114893 217.6345 141.6823 15.24287712419340
