<?xml version="1.0" encoding="UTF-8"?>
<ndm xmlns:xsi="http://www.w3.org/2001/XMLSchema-instance" xsi:noNamespaceSchemaLocation="https://sanaregistry.org/r/ndmxml_unqualified/ndmxml-2.0.0-master-2.0.xsd">
<omm id="CCSDS_OMM_VERS" version="2.0">
<header><CREATION_DATE/><ORIGINATOR/></header><body><segment><metadata><OBJECT_NAME>IRIDIUM 36</OBJECT_NAME><OBJECT_ID>1997-056C</OBJECT_ID><CENTER_NAME>EARTH</CENTER_NAME><REF_FRAME>TEME</REF_FRAME><TIME_SYSTEM>UTC</TIME_SYSTEM><MEAN_ELEMENT_THEORY>SGP4</MEAN_ELEMENT_THEORY></metadata><data><meanElements><EPOCH>2024-12-18T05:28:12.945504</EPOCH><MEAN_MOTION>14.37297605</MEAN_MOTION><ECCENTRICITY>.000192</ECCENTRICITY><INCLINATION>86.3971</INCLINATION><RA_OF_ASC_NODE>248.9686</RA_OF_ASC_NODE><ARG_OF_PERICENTER>83.8156</ARG_OF_PERICENTER><MEAN_ANOMALY>276.3260</MEAN_ANOMALY></meanElements><tleParameters><EPHEMERIS_TYPE>0</EPHEMERIS_TYPE><CLASSIFICATION_TYPE>U</CLASSIFICATION_TYPE><NORAD_CAT_ID>24967</NORAD_CAT_ID><ELEMENT_SET_NO>999</ELEMENT_SET_NO><REV_AT_EPOCH>42622</REV_AT_EPOCH><BSTAR>.27604E-3</BSTAR><MEAN_MOTION_DOT>.842E-5</MEAN_MOTION_DOT><MEAN_MOTION_DDOT>0</MEAN_MOTION_DDOT></tleParameters></data></segment></body></omm>
<omm id="CCSDS_OMM_VERS" version="2.0">
<header><CREATION_DATE/><ORIGINATOR/></header><body><segment><metadata><OBJECT_NAME>IRIDIUM 39</OBJECT_NAME><OBJECT_ID>1997-069D</OBJECT_ID><CENTER_NAME>EARTH</CENTER_NAME><REF_FRAME>TEME</REF_FRAME><TIME_SYSTEM>UTC</TIME_SYSTEM><MEAN_ELEMENT_THEORY>SGP4</MEAN_ELEMENT_THEORY></metadata><data><meanElements><EPOCH>2024-12-18T06:26:30.863328</EPOCH><MEAN_MOTION>14.48728875</MEAN_MOTION><ECCENTRICITY>.001744</ECCENTRICITY><INCLINATION>86.3905</INCLINATION><RA_OF_ASC_NODE>288.7057</RA_OF_ASC_NODE><ARG_OF_PERICENTER>183.7038</ARG_OF_PERICENTER><MEAN_ANOMALY>176.4040</MEAN_ANOMALY></meanElements><tleParameters><EPHEMERIS_TYPE>0</EPHEMERIS_TYPE><CLASSIFICATION_TYPE>U</CLASSIFICATION_TYPE><NORAD_CAT_ID>25042</NORAD_CAT_ID><ELEMENT_SET_NO>999</ELEMENT_SET_NO><REV_AT_EPOCH>42276</REV_AT_EPOCH><BSTAR>.40221E-3</BSTAR><MEAN_MOTION_DOT>.1539E-4</MEAN_MOTION_DOT><MEAN_MOTION_DDOT>0</MEAN_MOTION_DDOT></tleParameters></data></segment></body></omm>
<omm id="CCSDS_OMM_VERS" version="2.0">
<header><CREATION_DATE/><ORIGINATOR/></header><body><segment><metadata><OBJECT_NAME>IRIDIUM 38</OBJECT_NAME><OBJECT_ID>1997-069E</OBJECT_ID><CENTER_NAME>EARTH</CENTER_NAME><REF_FRAME>TEME</REF_FRAME><TIME_SYSTEM>UTC</TIME_SYSTEM><MEAN_ELEMENT_THEORY>SGP4</MEAN_ELEMENT_THEORY></metadata><data><meanElements><EPOCH>2024-12-18T05:52:07.763520</EPOCH><MEAN_MOTION>14.37786680</MEAN_MOTION><ECCENTRICITY>.0002307</ECCENTRICITY><INCLINATION>86.3950</INCLINATION><RA_OF_ASC_NODE>309.3045</RA_OF_ASC_NODE><ARG_OF_PERICENTER>37.6484</ARG_OF_PERICENTER><MEAN_ANOMALY>322.4875</MEAN_ANOMALY></meanElements><tleParameters><EPHEMERIS_TYPE>0</EPHEMERIS_TYPE><CLASSIFICATION_TYPE>U</CLASSIFICATION_TYPE><NORAD_CAT_ID>25043</NORAD_CAT_ID><ELEMENT_SET_NO>999</ELEMENT_SET_NO><REV_AT_EPOCH>41995</REV_AT_EPOCH><BSTAR>.35834E-3</BSTAR><MEAN_MOTION_DOT>.1098E-4</MEAN_MOTION_DOT><MEAN_MOTION_DDOT>0</MEAN_MOTION_DDOT></tleParameters></data></segment></body></omm>
<omm id="CCSDS_OMM_VERS" version="2.0">
<header><CREATION_DATE/><ORIGINATOR/></header><body><segment><metadata><OBJECT_NAME>IRIDIUM 42</OBJECT_NAME><OBJECT_ID>1997-077A</OBJECT_ID><CENTER_NAME>EARTH</CENTER_NAME><REF_FRAME>TEME</REF_FRAME><TIME_SYSTEM>UTC</TIME_SYSTEM><MEAN_ELEMENT_THEORY>SGP4</MEAN_ELEMENT_THEORY></metadata><data><meanElements><EPOCH>2024-12-18T04:03:50.646816</EPOCH><MEAN_MOTION>14.36047082</MEAN_MOTION><ECCENTRICITY>.0002312</ECCENTRICITY><INCLINATION>86.3955</INCLINATION><RA_OF_ASC_NODE>315.2840</RA_OF_ASC_NODE><ARG_OF_PERICENTER>68.5562</ARG_OF_PERICENTER><MEAN_ANOMALY>291.5882</MEAN_ANOMALY></meanElements><tleParameters><EPHEMERIS_TYPE>0</EPHEMERIS_TYPE><CLASSIFICATION_TYPE>U</CLASSIFICATION_TYPE><NORAD_CAT_ID>25077</NORAD_CAT_ID><ELEMENT_SET_NO>999</ELEMENT_SET_NO><REV_AT_EPOCH>41521</REV_AT_EPOCH><BSTAR>.34587E-3</BSTAR><MEAN_MOTION_DOT>.1025E-4</MEAN_MOTION_DOT><MEAN_MOTION_DDOT>0</MEAN_MOTION_DDOT></tleParameters></data></segment></body></omm>
<omm id="CCSDS_OMM_VERS" version="2.0">
<header><CREATION_DATE/><ORIGINATOR/></header><body><segment><metadata><OBJECT_NAME>IRIDIUM 44</OBJECT_NAME><OBJECT_ID>1997-077B</OBJECT_ID><CENTER_NAME>EARTH</CENTER_NAME><REF_FRAME>TEME</REF_FRAME><TIME_SYSTEM>UTC</TIME_SYSTEM><MEAN_ELEMENT_THEORY>SGP4</MEAN_ELEMENT_THEORY></metadata><data><meanElements><EPOCH>2024-12-18T07:59:46.432320</EPOCH><MEAN_MOTION>14.39916419</MEAN_MOTION><ECCENTRICITY>.0000439</ECCENTRICITY><INCLINATION>86.3949</INCLINATION><RA_OF_ASC_NODE>297.6121</RA_OF_ASC_NODE><ARG_OF_PERICENTER>93.1285</ARG_OF_PERICENTER><MEAN_ANOMALY>266.9965</MEAN_ANOMALY></meanElements><tleParameters><EPHEMERIS_TYPE>0</EPHEMERIS_TYPE><CLASSIFICATION_TYPE>U</CLASSIFICATION_TYPE><NORAD_CAT_ID>25078</NORAD_CAT_ID><ELEMENT_SET_NO>999</ELEMENT_SET_NO><REV_AT_EPOCH>41767</REV_AT_EPOCH><BSTAR>.32238E-3</BSTAR><MEAN_MOTION_DOT>.1032E-4</MEAN_MOTION_DOT><MEAN_MOTION_DDOT>0</MEAN_MOTION_DDOT></tleParameters></data></segment></body></omm>
<omm id="CCSDS_OMM_VERS" version="2.0">
<header><CREATION_DATE/><ORIGINATOR/></header><body><segment><metadata><OBJECT_NAME>IRIDIUM 45</OBJECT_NAME><OBJECT_ID>1997-082A</OBJECT_ID><CENTER_NAME>EARTH</CENTER_NAME><REF_FRAME>TEME</REF_FRAME><TIME_SYSTEM>UTC</TIME_SYSTEM><MEAN_ELEMENT_THEORY>SGP4</MEAN_ELEMENT_THEORY></metadata><data><meanElements><EPOCH>2024-12-18T10:28:34.815648</EPOCH><MEAN_MOTION>15.12929889</MEAN_MOTION><ECCENTRICITY>.0135897</ECCENTRICITY><INCLINATION>86.3634</INCLINATION><RA_OF_ASC_NODE>135.0559</RA_OF_ASC_NODE><ARG_OF_PERICENTER>284.9054</ARG_OF_PERICENTER><MEAN_ANOMALY>73.7169</MEAN_ANOMALY></meanElements><tleParameters><EPHEMERIS_TYPE>0</EPHEMERIS_TYPE><CLASSIFICATION_TYPE>U</CLASSIFICATION_TYPE><NORAD_CAT_ID>25104</NORAD_CAT_ID><ELEMENT_SET_NO>999</ELEMENT_SET_NO><REV_AT_EPOCH>42462</REV_AT_EPOCH><BSTAR>.10329E-2</BSTAR><MEAN_MOTION_DOT>.22928E-3</MEAN_MOTION_DOT><MEAN_MOTION_DDOT>0</MEAN_MOTION_DDOT></tleParameters></data></segment></body></omm>
<omm id="CCSDS_OMM_VERS" version="2.0">
<header><CREATION_DATE/><ORIGINATOR/></header><body><segment><metadata><OBJECT_NAME>IRIDIUM 24</OBJECT_NAME><OBJECT_ID>1997-082B</OBJECT_ID><CENTER_NAME>EARTH</CENTER_NAME><REF_FRAME>TEME</REF_FRAME><TIME_SYSTEM>UTC</TIME_SYSTEM><MEAN_ELEMENT_THEORY>SGP4</MEAN_ELEMENT_THEORY></metadata><data><meanElements><EPOCH>2024-12-17T23:34:14.413728</EPOCH><MEAN_MOTION>14.41738694</MEAN_MOTION><ECCENTRICITY>.001019</ECCENTRICITY><INCLINATION>86.3925</INCLINATION><RA_OF_ASC_NODE>157.1140</RA_OF_ASC_NODE><ARG_OF_PERICENTER>325.3575</ARG_OF_PERICENTER><MEAN_ANOMALY>34.6960</MEAN_ANOMALY></meanElements><tleParameters><EPHEMERIS_TYPE>0</EPHEMERIS_TYPE><CLASSIFICATION_TYPE>U</CLASSIFICATION_TYPE><NORAD_CAT_ID>25105</NORAD_CAT_ID><ELEMENT_SET_NO>999</ELEMENT_SET_NO><REV_AT_EPOCH>41710</REV_AT_EPOCH><BSTAR>.34618E-3</BSTAR><MEAN_MOTION_DOT>.1149E-4</MEAN_MOTION_DOT><MEAN_MOTION_DDOT>0</MEAN_MOTION_DDOT></tleParameters></data></segment></body></omm>
<omm id="CCSDS_OMM_VERS" version="2.0">
<header><CREATION_DATE/><ORIGINATOR/></header><body><segment><metadata><OBJECT_NAME>IRIDIUM 51</OBJECT_NAME><OBJECT_ID>1998-018A</OBJECT_ID><CENTER_NAME>EARTH</CENTER_NAME><REF_FRAME>TEME</REF_FRAME><TIME_SYSTEM>UTC</TIME_SYSTEM><MEAN_ELEMENT_THEORY>SGP4</MEAN_ELEMENT_THEORY></metadata><data><meanElements><EPOCH>2024-12-18T09:29:27.092544</EPOCH><MEAN_MOTION>15.24287712</MEAN_MOTION><ECCENTRICITY>.0114893</ECCENTRICITY><INCLINATION>86.3911</INCLINATION><RA_OF_ASC_NODE>144.2715</RA_OF_ASC_NODE><ARG_OF_PERICENTER>217.6345</ARG_OF_PERICENTER><MEAN_ANOMALY>141.6823</MEAN_ANOMALY></meanElements><tleParameters><EPHEMERIS_TYPE>0</EPHEMERIS_TYPE><CLASSIFICATION_TYPE>U</CLASSIFICATION_TYPE><NORAD_CAT_ID>25262</NORAD_CAT_ID><ELEMENT_SET_NO>999</ELEMENT_SET_NO><REV_AT_EPOCH>41934</REV_AT_EPOCH><BSTAR>.14883E-2</BSTAR><MEAN_MOTION_DOT>.44076E-3</MEAN_MOTION_DOT><MEAN_MOTION_DDOT>0</MEAN_MOTION_DDOT></tleParameters></data></segment></body></omm>

</ndm>
